ApartmentRoomOrSuiteNumber;BuildingSiteNumber;City;CountyName;FacilityBlockNumberArea;FacilityCensusTract;Latitude;Longitude;PostalCode;RecordEndDateTime;RecordStartDateTime;RefCountryId;RefERSRuralUrbanContinuumCodeId;RefStateId;LocationId;RefCountyId;StreetNumberAndName
Aula 1;01;Chillán;Chillán;;;;;;;;45;;70;2221001;179;AV. NUEVA ORIENTE 657
Aula 1;01;Chillán;Chillán;;;;;;;;45;;70;2221003;179;AV. NUEVA ORIENTE 657
Aula 1;01;Chillán;Chillán;;;;;;;;45;;70;2221004;179;AV. NUEVA ORIENTE 657
Aula 1;01;Chillán;Chillán;;;;;;;;45;;70;2221005;179;AV. NUEVA ORIENTE 657
Aula 1;01;Chillán;Chillán;;;;;;;;45;;70;2221011;179;AV. NUEVA ORIENTE 657
Aula 1;01;Chillán;Chillán;;;;;;;;45;;70;2221014;179;AV. NUEVA ORIENTE 657
Aula 1;01;Chillán;Chillán;;;;;;;;45;;70;2221019;179;AV. NUEVA ORIENTE 657
Aula 1;01;Chillán;Chillán;;;;;;;;45;;70;2221020;179;AV. NUEVA ORIENTE 657
Aula 1;01;Chillán;Chillán;;;;;;;;45;;70;2221021;179;AV. NUEVA ORIENTE 657
Aula 1;01;Chillán;Chillán;;;;;;;;45;;70;2221022;179;AV. NUEVA ORIENTE 657
Aula 1;01;Chillán;Chillán;;;;;;;;45;;70;2221023;179;AV. NUEVA ORIENTE 657
Aula 1;01;Chillán;Chillán;;;;;;;;45;;70;2221024;179;AV. NUEVA ORIENTE 657
Aula 1;01;Chillán;Chillán;;;;;;;;45;;70;2221025;179;AV. NUEVA ORIENTE 657
Aula 1;01;Chillán;Chillán;;;;;;;;45;;70;2221026;179;AV. NUEVA ORIENTE 657
Aula 1;01;Chillán;Chillán;;;;;;;;45;;70;2221039;179;AV. NUEVA ORIENTE 657
Aula 1;01;Chillán;Chillán;;;;;;;;45;;70;2221041;179;AV. NUEVA ORIENTE 657
Aula 1;01;Chillán;Chillán;;;;;;;;45;;70;2221042;179;AV. NUEVA ORIENTE 657
Aula 1;01;Chillán;Chillán;;;;;;;;45;;70;2221043;179;AV. NUEVA ORIENTE 657
Aula 1;01;Chillán;Chillán;;;;;;;;45;;70;2221044;179;AV. NUEVA ORIENTE 657
Aula 1;01;Chillán;Chillán;;;;;;;;45;;70;2221045;179;AV. NUEVA ORIENTE 657
Aula 1;01;Chillán;Chillán;;;;;;;;45;;70;2221046;179;AV. NUEVA ORIENTE 657
Aula 1;01;Chillán;Chillán;;;;;;;;45;;70;2221056;179;AV. NUEVA ORIENTE 657
Aula 1;01;Chillán;Chillán;;;;;;;;45;;70;2221057;179;AV. NUEVA ORIENTE 657
Aula 1;01;Chillán;Chillán;;;;;;;;45;;70;2221058;179;AV. NUEVA ORIENTE 657
Aula 1;01;Chillán;Chillán;;;;;;;;45;;70;2221059;179;AV. NUEVA ORIENTE 657
Aula 1;01;Chillán;Chillán;;;;;;;;45;;70;2221060;179;AV. NUEVA ORIENTE 657
Aula 1;01;Chillán;Chillán;;;;;;;;45;;70;2221061;179;AV. NUEVA ORIENTE 657
Aula 1;01;Chillán;Chillán;;;;;;;;45;;70;2221062;179;AV. NUEVA ORIENTE 657
Aula 1;01;Chillán;Chillán;;;;;;;;45;;70;2221063;179;AV. NUEVA ORIENTE 657
Aula 1;01;Chillán;Chillán;;;;;;;;45;;70;2221072;179;AV. NUEVA ORIENTE 657
Aula 1;01;Chillán;Chillán;;;;;;;;45;;70;2221073;179;AV. NUEVA ORIENTE 657
Aula 1;01;Chillán;Chillán;;;;;;;;45;;70;2221074;179;AV. NUEVA ORIENTE 657
Aula 1;01;Chillán;Chillán;;;;;;;;45;;70;2221075;179;AV. NUEVA ORIENTE 657
Aula 1;01;Chillán;Chillán;;;;;;;;45;;70;2221076;179;AV. NUEVA ORIENTE 657
Aula 1;01;Chillán;Chillán;;;;;;;;45;;70;2221077;179;AV. NUEVA ORIENTE 657
Aula 1;01;Chillán;Chillán;;;;;;;;45;;70;2221078;179;AV. NUEVA ORIENTE 657
Aula 1;01;Chillán;Chillán;;;;;;;;45;;70;2221079;179;AV. NUEVA ORIENTE 657
Aula 1;01;Chillán;Chillán;;;;;;;;45;;70;2221088;179;AV. NUEVA ORIENTE 657
Aula 1;01;Chillán;Chillán;;;;;;;;45;;70;2221089;179;AV. NUEVA ORIENTE 657
Aula 1;01;Chillán;Chillán;;;;;;;;45;;70;2221090;179;AV. NUEVA ORIENTE 657
Aula 1;01;Chillán;Chillán;;;;;;;;45;;70;2221091;179;AV. NUEVA ORIENTE 657
Aula 1;01;Chillán;Chillán;;;;;;;;45;;70;2221092;179;AV. NUEVA ORIENTE 657
Aula 1;01;Chillán;Chillán;;;;;;;;45;;70;2221093;179;AV. NUEVA ORIENTE 657
Aula 1;01;Chillán;Chillán;;;;;;;;45;;70;2221094;179;AV. NUEVA ORIENTE 657
Aula 1;01;Chillán;Chillán;;;;;;;;45;;70;2221095;179;AV. NUEVA ORIENTE 657
Aula 1;01;Chillán;Chillán;;;;;;;;45;;70;2221096;179;AV. NUEVA ORIENTE 657
Aula 1;01;Chillán;Chillán;;;;;;;;45;;70;2221097;179;AV. NUEVA ORIENTE 657
Aula 1;01;Chillán;Chillán;;;;;;;;45;;70;2221098;179;AV. NUEVA ORIENTE 657
Aula 1;01;Chillán;Chillán;;;;;;;;45;;70;2221099;179;AV. NUEVA ORIENTE 657
Aula 1;01;Chillán;Chillán;;;;;;;;45;;70;2221100;179;AV. NUEVA ORIENTE 657
Aula 1;01;Chillán;Chillán;;;;;;;;45;;70;2221101;179;AV. NUEVA ORIENTE 657
Aula 1;01;Chillán;Chillán;;;;;;;;45;;70;2221102;179;AV. NUEVA ORIENTE 657
Aula 1;01;Chillán;Chillán;;;;;;;;45;;70;2221103;179;AV. NUEVA ORIENTE 657
Aula 1;01;Chillán;Chillán;;;;;;;;45;;70;2221104;179;AV. NUEVA ORIENTE 657
Aula 1;01;Chillán;Chillán;;;;;;;;45;;70;2221105;179;AV. NUEVA ORIENTE 657
Aula 1;01;Chillán;Chillán;;;;;;;;45;;70;2221106;179;AV. NUEVA ORIENTE 657
Aula 1;01;Chillán;Chillán;;;;;;;;45;;70;2221107;179;AV. NUEVA ORIENTE 657
Aula 1;01;Chillán;Chillán;;;;;;;;45;;70;2221108;179;AV. NUEVA ORIENTE 657
Aula 1;01;Chillán;Chillán;;;;;;;;45;;70;2221109;179;AV. NUEVA ORIENTE 657
Aula 1;01;Chillán;Chillán;;;;;;;;45;;70;2221110;179;AV. NUEVA ORIENTE 657
Aula 1;01;Chillán;Chillán;;;;;;;;45;;70;2221111;179;AV. NUEVA ORIENTE 657
Aula 1;01;Chillán;Chillán;;;;;;;;45;;70;2221112;179;AV. NUEVA ORIENTE 657
Aula 1;01;Chillán;Chillán;;;;;;;;45;;70;2221113;179;AV. NUEVA ORIENTE 657
Aula 1;01;Chillán;Chillán;;;;;;;;45;;70;2221114;179;AV. NUEVA ORIENTE 657
Aula 1;01;Chillán;Chillán;;;;;;;;45;;70;2221115;179;AV. NUEVA ORIENTE 657
Aula 1;01;Chillán;Chillán;;;;;;;;45;;70;2221116;179;AV. NUEVA ORIENTE 657
Aula 1;01;Chillán;Chillán;;;;;;;;45;;70;2221117;179;AV. NUEVA ORIENTE 657
Aula 1;01;Chillán;Chillán;;;;;;;;45;;70;2221118;179;AV. NUEVA ORIENTE 657
Aula 1;01;Chillán;Chillán;;;;;;;;45;;70;2221119;179;AV. NUEVA ORIENTE 657
Aula 1;01;Chillán;Chillán;;;;;;;;45;;70;2221120;179;AV. NUEVA ORIENTE 657
Aula 1;01;Chillán;Chillán;;;;;;;;45;;70;2221121;179;AV. NUEVA ORIENTE 657
Aula 1;01;Chillán;Chillán;;;;;;;;45;;70;2221122;179;AV. NUEVA ORIENTE 657
Aula 1;01;Chillán;Chillán;;;;;;;;45;;70;2221123;179;AV. NUEVA ORIENTE 657
Aula 1;01;Chillán;Chillán;;;;;;;;45;;70;2221125;179;AV. NUEVA ORIENTE 657
Aula 1;01;Chillán;Chillán;;;;;;;;45;;70;2221126;179;AV. NUEVA ORIENTE 657
Aula 1;01;Chillán;Chillán;;;;;;;;45;;70;2221127;179;AV. NUEVA ORIENTE 657
Aula 1;01;Chillán;Chillán;;;;;;;;45;;70;2221128;179;AV. NUEVA ORIENTE 657
Aula 1;01;Chillán;Chillán;;;;;;;;45;;70;2221129;179;AV. NUEVA ORIENTE 657
Aula 1;01;Chillán;Chillán;;;;;;;;45;;70;2221130;179;AV. NUEVA ORIENTE 657
Aula 1;01;Chillán;Chillán;;;;;;;;45;;70;2221131;179;AV. NUEVA ORIENTE 657
Aula 1;01;Chillán;Chillán;;;;;;;;45;;70;2221132;179;AV. NUEVA ORIENTE 657
Aula 1;01;Chillán;Chillán;;;;;;;;45;;70;2221133;179;AV. NUEVA ORIENTE 657
Aula 1;01;Chillán;Chillán;;;;;;;;45;;70;2221134;179;AV. NUEVA ORIENTE 657
Aula 1;01;Chillán;Chillán;;;;;;;;45;;70;2221135;179;AV. NUEVA ORIENTE 657
Aula 1;01;Chillán;Chillán;;;;;;;;45;;70;2221136;179;AV. NUEVA ORIENTE 657
Aula 1;01;Chillán;Chillán;;;;;;;;45;;70;2221137;179;AV. NUEVA ORIENTE 657
Aula 1;01;Chillán;Chillán;;;;;;;;45;;70;2221138;179;AV. NUEVA ORIENTE 657
Aula 1;01;Chillán;Chillán;;;;;;;;45;;70;2221139;179;AV. NUEVA ORIENTE 657
Aula 1;01;Chillán;Chillán;;;;;;;;45;;70;2221140;179;AV. NUEVA ORIENTE 657
Aula 1;01;Chillán;Chillán;;;;;;;;45;;70;2221152;179;AV. NUEVA ORIENTE 657
Aula 1;01;Chillán;Chillán;;;;;;;;45;;70;2221153;179;AV. NUEVA ORIENTE 657
Aula 1;01;Chillán;Chillán;;;;;;;;45;;70;2221154;179;AV. NUEVA ORIENTE 657
Aula 1;01;Chillán;Chillán;;;;;;;;45;;70;2221155;179;AV. NUEVA ORIENTE 657
Aula 1;01;Chillán;Chillán;;;;;;;;45;;70;2221156;179;AV. NUEVA ORIENTE 657
Aula 1;01;Chillán;Chillán;;;;;;;;45;;70;2221157;179;AV. NUEVA ORIENTE 657
Aula 1;01;Chillán;Chillán;;;;;;;;45;;70;2221158;179;AV. NUEVA ORIENTE 657
Aula 1;01;Chillán;Chillán;;;;;;;;45;;70;2221159;179;AV. NUEVA ORIENTE 657
Aula 1;01;Chillán;Chillán;;;;;;;;45;;70;2221160;179;AV. NUEVA ORIENTE 657
Aula 1;01;Chillán;Chillán;;;;;;;;45;;70;2221161;179;AV. NUEVA ORIENTE 657
Aula 1;01;Chillán;Chillán;;;;;;;;45;;70;2221176;179;AV. NUEVA ORIENTE 657
Aula 1;01;Chillán;Chillán;;;;;;;;45;;70;2221177;179;AV. NUEVA ORIENTE 657
Aula 1;01;Chillán;Chillán;;;;;;;;45;;70;2221178;179;AV. NUEVA ORIENTE 657
Aula 1;01;Chillán;Chillán;;;;;;;;45;;70;2221179;179;AV. NUEVA ORIENTE 657
Aula 1;01;Chillán;Chillán;;;;;;;;45;;70;2221180;179;AV. NUEVA ORIENTE 657
Aula 1;01;Chillán;Chillán;;;;;;;;45;;70;2221182;179;AV. NUEVA ORIENTE 657
Aula 1;01;Chillán;Chillán;;;;;;;;45;;70;2221183;179;AV. NUEVA ORIENTE 657
Aula 1;01;Chillán;Chillán;;;;;;;;45;;70;2221185;179;AV. NUEVA ORIENTE 657
Aula 1;01;Chillán;Chillán;;;;;;;;45;;70;2221186;179;AV. NUEVA ORIENTE 657
Aula 1;01;Chillán;Chillán;;;;;;;;45;;70;2221187;179;AV. NUEVA ORIENTE 657
Aula 1;01;Chillán;Chillán;;;;;;;;45;;70;2221188;179;AV. NUEVA ORIENTE 657
sn;sn;Chillán;Chillán;;;;;;;;45;;70;111339;179;AV. NUEVA ORIENTE 657
sn;sn;Chillán;Chillán;;;;;;;;45;;70;111340;179;AV. NUEVA ORIENTE 657
sn;sn;Chillán;Chillán;;;;;;;;45;;70;111341;179;AV. NUEVA ORIENTE 657
sn;sn;Chillán;Chillán;;;;;;;;45;;70;111342;179;AV. NUEVA ORIENTE 657
sn;sn;Chillán;Chillán;;;;;;;;45;;70;111343;179;AV. NUEVA ORIENTE 657
sn;sn;Chillán;Chillán;;;;;;;;45;;70;111344;179;AV. NUEVA ORIENTE 657
sn;sn;Chillán;Chillán;;;;;;;;45;;70;111345;179;AV. NUEVA ORIENTE 657
sn;sn;Chillán;Chillán;;;;;;;;45;;70;111346;179;AV. NUEVA ORIENTE 657
sn;sn;Chillán;Chillán;;;;;;;;45;;70;111347;179;AV. NUEVA ORIENTE 657
sn;sn;Chillán;Chillán;;;;;;;;45;;70;111348;179;AV. NUEVA ORIENTE 657
sn;sn;Chillán;Chillán;;;;;;;;45;;70;111349;179;AV. NUEVA ORIENTE 657
sn;sn;Chillán;Chillán;;;;;;;;45;;70;111350;179;AV. NUEVA ORIENTE 657
sn;sn;Chillán;Chillán;;;;;;;;45;;70;111351;179;AV. NUEVA ORIENTE 657
sn;sn;Chillán;Chillán;;;;;;;;45;;70;111352;179;AV. NUEVA ORIENTE 657
sn;sn;Chillán;Chillán;;;;;;;;45;;70;111353;179;AV. NUEVA ORIENTE 657
sn;sn;Chillán;Chillán;;;;;;;;45;;70;111354;179;AV. NUEVA ORIENTE 657
sn;sn;Chillán;Chillán;;;;;;;;45;;70;111355;179;AV. NUEVA ORIENTE 657
sn;sn;Chillán;Chillán;;;;;;;;45;;70;111356;179;AV. NUEVA ORIENTE 657
sn;sn;Chillán;Chillán;;;;;;;;45;;70;111357;179;AV. NUEVA ORIENTE 657
sn;sn;Chillán;Chillán;;;;;;;;45;;70;111358;179;AV. NUEVA ORIENTE 657
sn;sn;Chillán;Chillán;;;;;;;;45;;70;111359;179;AV. NUEVA ORIENTE 657
sn;sn;Chillán;Chillán;;;;;;;;45;;70;111360;179;AV. NUEVA ORIENTE 657
sn;sn;Chillán;Chillán;;;;;;;;45;;70;111361;179;AV. NUEVA ORIENTE 657
sn;sn;Chillán;Chillán;;;;;;;;45;;70;111362;179;AV. NUEVA ORIENTE 657
sn;sn;Chillán;Chillán;;;;;;;;45;;70;111363;179;AV. NUEVA ORIENTE 657
sn;sn;Chillán;Chillán;;;;;;;;45;;70;111364;179;AV. NUEVA ORIENTE 657
sn;sn;Chillán;Chillán;;;;;;;;45;;70;111365;179;AV. NUEVA ORIENTE 657
s/n;s/n;Chillán;Chillán;;;s/n;s/n;s/n;;;45;;70;100;179;AV. NUEVA ORIENTE 657
